STARLINK-36837          
1 67858U 26034J   26071.25441205  .00228429  00000+0  11275-2 0  9992
2 67858  53.1586 198.4331 0000722  88.1807 271.9299 15.80931719  4340
STARLINK-36393          
1 67859U 26034K   26071.25365974  .00260463  00000+0  12805-2 0  9995
2 67859  53.1585 198.4280 0000822  62.3329 297.7777 15.80927829  4341
STARLINK-35873          
1 67860U 26034L   26071.25291095  .00234753  00000+0  11578-2 0  9998
2 67860  53.1586 198.4229 0001002  37.5753 322.5340 15.80930372  4376
STARLINK-36325          
1 67861U 26034M   26071.31537630  .00371939  00000+0  17996-2 0  9992
2 67861  53.1580 198.1009 0000781  64.0018 296.1085 15.80972644  4354
STARLINK-36332          
1 67862U 26034N   26071.25141090  .00253090  00000+0  12454-2 0  9998
2 67862  53.1579 198.4133 0001021  31.4824 328.6260 15.80928818  4344
STARLINK-36835          
1 67863U 26034P   26070.93455984  .00286391  00000+0  14008-2 0  9990
2 67863  53.1586 199.9905 0001132  67.1682 292.9460 15.80967181  4292
STARLINK-36831          
1 67864U 26034Q   26071.31312587  .00346160  00000+0  16829-2 0  9999
2 67864  53.1581 198.0859 0000986  82.7245 277.3890 15.80938709  4355
STARLINK-36738          
1 67865U 26034R   26071.24915999  .00336610  00000+0  16349-2 0  9994
2 67865  53.1579 198.3972 0000951  94.1171 265.9960 15.80984566  4341
STARLINK-36780          
1 67866U 26034S   26071.24841115  .00218561  00000+0  10801-2 0  9994
2 67866  53.1586 198.3902 0000887  57.6465 302.4644 15.80933185  4348
STARLINK-36761          
1 67867U 26034T   26071.24766056  .00211103  00000+0  10463-2 0  9994
2 67867  53.1587 198.3853 0001614  14.7173 345.3896 15.80889992  4345
STARLINK-36762          
1 67868U 26034U   26071.05724926  .00223875  00000+0  11053-2 0  9999
2 67868  53.1584 199.3309 0001205  92.8817 267.2344 15.80937624  4311
STARLINK-36779          
1 67869U 26034V   26071.05650211  .00258792  00000+0  12715-2 0  9997
2 67869  53.1586 199.3253 0001464  71.2401 288.8781 15.80945864  4318
STARLINK-36770          
1 67870U 26034W   26071.24465765  .00296700  00000+0  14494-2 0  9995
2 67870  53.1585 198.3646 0001045  53.1239 306.9879 15.80967448  4342
STARLINK-36769          
1 67871U 26034X   26071.24540255  .00091283  00000+0  46015-3 0  9998
2 67871  53.1585 198.3701 0001533  71.4231 288.6959 15.80919717  4343
STARLINK-36786          
1 67872U 26034Y   26070.80136746  .00339730  00000+0  16483-2 0  9993
2 67872  53.1586 200.5786 0001094  69.1761 290.9379 15.80999512  4273
STARLINK-36783          
1 67873U 26034Z   26071.05349972  .00259283  00000+0  12740-2 0  9995
2 67873  53.1586 199.3059 0001375  74.6668 285.4507 15.80943430  4316
