[{"OBJECT_NAME":"STARLINK-36837","OBJECT_ID":"2026-034J","EPOCH":"2026-03-12T06:06:21.201120","MEAN_MOTION":15.80931719,"ECCENTRICITY":7.225e-5,"INCLINATION":53.1586,"RA_OF_ASC_NODE":198.4331,"ARG_OF_PERICENTER":88.1807,"MEAN_ANOMALY":271.9299,"EPHEMERIS_TYPE":0,"CLASSIFICATION_TYPE":"U","NORAD_CAT_ID":67858,"ELEMENT_SET_NO":999,"REV_AT_EPOCH":434,"BSTAR":0.0011274571,"MEAN_MOTION_DOT":0.00228429,"MEAN_MOTION_DDOT":0},{"OBJECT_NAME":"STARLINK-36393","OBJECT_ID":"2026-034K","EPOCH":"2026-03-12T06:05:16.201536","MEAN_MOTION":15.80927829,"ECCENTRICITY":8.225e-5,"INCLINATION":53.1585,"RA_OF_ASC_NODE":198.428,"ARG_OF_PERICENTER":62.3329,"MEAN_ANOMALY":297.7777,"EPHEMERIS_TYPE":0,"CLASSIFICATION_TYPE":"U","NORAD_CAT_ID":67859,"ELEMENT_SET_NO":999,"REV_AT_EPOCH":434,"BSTAR":0.0012805105,"MEAN_MOTION_DOT":0.00260463,"MEAN_MOTION_DDOT":0},{"OBJECT_NAME":"STARLINK-35873","OBJECT_ID":"2026-034L","EPOCH":"2026-03-12T06:04:11.506080","MEAN_MOTION":15.80930372,"ECCENTRICITY":0.00010029,"INCLINATION":53.1586,"RA_OF_ASC_NODE":198.4229,"ARG_OF_PERICENTER":37.5753,"MEAN_ANOMALY":322.534,"EPHEMERIS_TYPE":0,"CLASSIFICATION_TYPE":"U","NORAD_CAT_ID":67860,"ELEMENT_SET_NO":999,"REV_AT_EPOCH":437,"BSTAR":0.0011577993,"MEAN_MOTION_DOT":0.00234753,"MEAN_MOTION_DDOT":0},{"OBJECT_NAME":"STARLINK-36325","OBJECT_ID":"2026-034M","EPOCH":"2026-03-12T07:34:08.512320","MEAN_MOTION":15.80972644,"ECCENTRICITY":7.817e-5,"INCLINATION":53.158,"RA_OF_ASC_NODE":198.1009,"ARG_OF_PERICENTER":64.0018,"MEAN_ANOMALY":296.1085,"EPHEMERIS_TYPE":0,"CLASSIFICATION_TYPE":"U","NORAD_CAT_ID":67861,"ELEMENT_SET_NO":999,"REV_AT_EPOCH":435,"BSTAR":0.0017996315,"MEAN_MOTION_DOT":0.00371939,"MEAN_MOTION_DDOT":0},{"OBJECT_NAME":"STARLINK-36332","OBJECT_ID":"2026-034N","EPOCH":"2026-03-12T06:02:01.901760","MEAN_MOTION":15.80928818,"ECCENTRICITY":0.00010212,"INCLINATION":53.1579,"RA_OF_ASC_NODE":198.4133,"ARG_OF_PERICENTER":31.4824,"MEAN_ANOMALY":328.626,"EPHEMERIS_TYPE":0,"CLASSIFICATION_TYPE":"U","NORAD_CAT_ID":67862,"ELEMENT_SET_NO":999,"REV_AT_EPOCH":434,"BSTAR":0.0012453826,"MEAN_MOTION_DOT":0.0025309,"MEAN_MOTION_DDOT":0},{"OBJECT_NAME":"STARLINK-36835","OBJECT_ID":"2026-034P","EPOCH":"2026-03-11T22:25:45.970176","MEAN_MOTION":15.80967181,"ECCENTRICITY":0.00011324,"INCLINATION":53.1586,"RA_OF_ASC_NODE":199.9905,"ARG_OF_PERICENTER":67.1682,"MEAN_ANOMALY":292.946,"EPHEMERIS_TYPE":0,"CLASSIFICATION_TYPE":"U","NORAD_CAT_ID":67863,"ELEMENT_SET_NO":999,"REV_AT_EPOCH":429,"BSTAR":0.0014008494,"MEAN_MOTION_DOT":0.00286391,"MEAN_MOTION_DDOT":0},{"OBJECT_NAME":"STARLINK-36831","OBJECT_ID":"2026-034Q","EPOCH":"2026-03-12T07:30:54.075168","MEAN_MOTION":15.80938709,"ECCENTRICITY":9.866e-5,"INCLINATION":53.1581,"RA_OF_ASC_NODE":198.0859,"ARG_OF_PERICENTER":82.7245,"MEAN_ANOMALY":277.389,"EPHEMERIS_TYPE":0,"CLASSIFICATION_TYPE":"U","NORAD_CAT_ID":67864,"ELEMENT_SET_NO":999,"REV_AT_EPOCH":435,"BSTAR":0.0016828667,"MEAN_MOTION_DOT":0.0034616,"MEAN_MOTION_DDOT":0},{"OBJECT_NAME":"STARLINK-36738","OBJECT_ID":"2026-034R","EPOCH":"2026-03-12T05:58:47.423136","MEAN_MOTION":15.80984566,"ECCENTRICITY":9.51e-5,"INCLINATION":53.1579,"RA_OF_ASC_NODE":198.3972,"ARG_OF_PERICENTER":94.1171,"MEAN_ANOMALY":265.996,"EPHEMERIS_TYPE":0,"CLASSIFICATION_TYPE":"U","NORAD_CAT_ID":67865,"ELEMENT_SET_NO":999,"REV_AT_EPOCH":434,"BSTAR":0.001634912,"MEAN_MOTION_DOT":0.0033661,"MEAN_MOTION_DDOT":0},{"OBJECT_NAME":"STARLINK-36780","OBJECT_ID":"2026-034S","EPOCH":"2026-03-12T05:57:42.723360","MEAN_MOTION":15.80933185,"ECCENTRICITY":8.875e-5,"INCLINATION":53.1586,"RA_OF_ASC_NODE":198.3902,"ARG_OF_PERICENTER":57.6465,"MEAN_ANOMALY":302.4644,"EPHEMERIS_TYPE":0,"CLASSIFICATION_TYPE":"U","NORAD_CAT_ID":67866,"ELEMENT_SET_NO":999,"REV_AT_EPOCH":434,"BSTAR":0.0010800753,"MEAN_MOTION_DOT":0.00218561,"MEAN_MOTION_DDOT":0},{"OBJECT_NAME":"STARLINK-36761","OBJECT_ID":"2026-034T","EPOCH":"2026-03-12T05:56:37.872384","MEAN_MOTION":15.80889992,"ECCENTRICITY":0.00016143,"INCLINATION":53.1587,"RA_OF_ASC_NODE":198.3853,"ARG_OF_PERICENTER":14.7173,"MEAN_ANOMALY":345.3896,"EPHEMERIS_TYPE":0,"CLASSIFICATION_TYPE":"U","NORAD_CAT_ID":67867,"ELEMENT_SET_NO":999,"REV_AT_EPOCH":434,"BSTAR":0.0010463201,"MEAN_MOTION_DOT":0.00211103,"MEAN_MOTION_DDOT":0},{"OBJECT_NAME":"STARLINK-36762","OBJECT_ID":"2026-034U","EPOCH":"2026-03-12T01:22:26.336064","MEAN_MOTION":15.80937624,"ECCENTRICITY":0.00012053,"INCLINATION":53.1584,"RA_OF_ASC_NODE":199.3309,"ARG_OF_PERICENTER":92.8817,"MEAN_ANOMALY":267.2344,"EPHEMERIS_TYPE":0,"CLASSIFICATION_TYPE":"U","NORAD_CAT_ID":67868,"ELEMENT_SET_NO":999,"REV_AT_EPOCH":431,"BSTAR":0.0011053462,"MEAN_MOTION_DOT":0.00223875,"MEAN_MOTION_DDOT":0},{"OBJECT_NAME":"STARLINK-36779","OBJECT_ID":"2026-034V","EPOCH":"2026-03-12T01:21:21.782304","MEAN_MOTION":15.80945864,"ECCENTRICITY":0.0001464,"INCLINATION":53.1586,"RA_OF_ASC_NODE":199.3253,"ARG_OF_PERICENTER":71.2401,"MEAN_ANOMALY":288.8781,"EPHEMERIS_TYPE":0,"CLASSIFICATION_TYPE":"U","NORAD_CAT_ID":67869,"ELEMENT_SET_NO":999,"REV_AT_EPOCH":431,"BSTAR":0.0012715296,"MEAN_MOTION_DOT":0.00258792,"MEAN_MOTION_DDOT":0},{"OBJECT_NAME":"STARLINK-36770","OBJECT_ID":"2026-034W","EPOCH":"2026-03-12T05:52:18.420960","MEAN_MOTION":15.80967448,"ECCENTRICITY":0.0001045,"INCLINATION":53.1585,"RA_OF_ASC_NODE":198.3646,"ARG_OF_PERICENTER":53.1239,"MEAN_ANOMALY":306.9879,"EPHEMERIS_TYPE":0,"CLASSIFICATION_TYPE":"U","NORAD_CAT_ID":67870,"ELEMENT_SET_NO":999,"REV_AT_EPOCH":434,"BSTAR":0.0014493788,"MEAN_MOTION_DOT":0.002967,"MEAN_MOTION_DDOT":0},{"OBJECT_NAME":"STARLINK-36769","OBJECT_ID":"2026-034X","EPOCH":"2026-03-12T05:53:22.780320","MEAN_MOTION":15.80919717,"ECCENTRICITY":0.00015335,"INCLINATION":53.1585,"RA_OF_ASC_NODE":198.3701,"ARG_OF_PERICENTER":71.4231,"MEAN_ANOMALY":288.6959,"EPHEMERIS_TYPE":0,"CLASSIFICATION_TYPE":"U","NORAD_CAT_ID":67871,"ELEMENT_SET_NO":999,"REV_AT_EPOCH":434,"BSTAR":0.00046015127,"MEAN_MOTION_DOT":0.00091283,"MEAN_MOTION_DDOT":0},{"OBJECT_NAME":"STARLINK-36786","OBJECT_ID":"2026-034Y","EPOCH":"2026-03-11T19:13:58.148544","MEAN_MOTION":15.80999512,"ECCENTRICITY":0.00010947,"INCLINATION":53.1586,"RA_OF_ASC_NODE":200.5786,"ARG_OF_PERICENTER":69.1761,"MEAN_ANOMALY":290.9379,"EPHEMERIS_TYPE":0,"CLASSIFICATION_TYPE":"U","NORAD_CAT_ID":67872,"ELEMENT_SET_NO":999,"REV_AT_EPOCH":427,"BSTAR":0.0016483105,"MEAN_MOTION_DOT":0.0033973,"MEAN_MOTION_DDOT":0},{"OBJECT_NAME":"STARLINK-36783","OBJECT_ID":"2026-034Z","EPOCH":"2026-03-12T01:17:02.375808","MEAN_MOTION":15.8094343,"ECCENTRICITY":0.00013751,"INCLINATION":53.1586,"RA_OF_ASC_NODE":199.3059,"ARG_OF_PERICENTER":74.6668,"MEAN_ANOMALY":285.4507,"EPHEMERIS_TYPE":0,"CLASSIFICATION_TYPE":"U","NORAD_CAT_ID":67873,"ELEMENT_SET_NO":999,"REV_AT_EPOCH":431,"BSTAR":0.001274001,"MEAN_MOTION_DOT":0.00259283,"MEAN_MOTION_DDOT":0}]
